BUFENG 1A               
1 44310U 19032A   26068.91906837  .00016103  00000+0  62414-3 0  9992
2 44310  44.9758 238.6688 0005472  55.4463 304.6935 15.26012088372013
STARLINK-32761          
1 62749U 25014Q   26068.26035100  .00025943  00000+0  94874-3 0  9996
2 62749  42.9943 160.1054 0002342 141.6220 218.4799 15.27586993 63155
